[{"OBJECT_NAME":"STARLINK-34836","OBJECT_ID":"2025-191W","EPOCH":"2026-03-09T15:37:19.177824","MEAN_MOTION":15.05645449,"ECCENTRICITY":0.0002985,"INCLINATION":97.6027,"RA_OF_ASC_NODE":301.4895,"ARG_OF_PERICENTER":66.6441,"MEAN_ANOMALY":293.5099,"EPHEMERIS_TYPE":0,"CLASSIFICATION_TYPE":"U","NORAD_CAT_ID":65399,"ELEMENT_SET_NO":999,"REV_AT_EPOCH":3026,"BSTAR":0.00093942,"MEAN_MOTION_DOT":0.00013519,"MEAN_MOTION_DDOT":0},{"OBJECT_NAME":"RAPIDEYE 5","OBJECT_ID":"2008-040B","EPOCH":"2026-03-09T15:17:22.403904","MEAN_MOTION":15.02179038,"ECCENTRICITY":0.0014834,"INCLINATION":97.3944,"RA_OF_ASC_NODE":91.3825,"ARG_OF_PERICENTER":86.9831,"MEAN_ANOMALY":273.3091,"EPHEMERIS_TYPE":0,"CLASSIFICATION_TYPE":"U","NORAD_CAT_ID":33313,"ELEMENT_SET_NO":999,"REV_AT_EPOCH":95055,"BSTAR":0.00014028,"MEAN_MOTION_DOT":1.794e-5,"MEAN_MOTION_DDOT":0}]
